QIANFAN-33              
1 61566U 24185Q   26196.91046309  .00000169  00000+0  11218-3 0  9991
2 61566  88.9793  54.8206 0008588  29.2091 330.9565 13.96719877 99194
QIANFAN-34              
1 61567U 24185R   26196.92024111  .00000083  00000+0  44711-4 0  9990
2 61567  88.9771  54.0984 0006704  28.7047 331.4501 14.02483907 99511
QIANFAN-35              
1 61568U 24185S   26196.86819107  .00000331  00000+0  12668-3 0  9992
2 61568  88.9798  51.6304 0004494 315.6194  44.4640 14.28298308100880
QIANFAN-36              
1 61569U 24185T   26196.90128234  .00000110  00000+0  14087-3 0  9994
2 61569  88.9771  58.6250 0007658 125.5698 234.6170 13.55640336 97079
QIANFAN-37              
1 62238U 24232B   26196.92400421  .00000021  00000+0  13371-4 0  9991
2 62238  89.0067  19.6974 0002015 108.0285 252.1086 13.51011259128228
QIANFAN-38              
1 62239U 24232C   26196.94870182  .00000034  00000+0  33740-4 0  9995
2 62239  89.0074  19.6252 0012655 297.2752  62.7110 13.51007956128285
QIANFAN-39              
1 62240U 24232D   26196.92958351  .00000072  00000+0  23999-4 0  9997
2 62240  89.0062  12.7917 0018535  93.6163 266.7151 14.25532447132043
QIANFAN-40              
1 62241U 24232E   26196.90751098  .00000019  00000+0  10668-4 0  9995
2 62241  89.0101  19.2739 0011854 306.9758  53.0307 13.51009404128640
QIANFAN-41              
1 62242U 24232F   26196.91572748  .00000032  00000+0  30743-4 0  9991
2 62242  89.0072  19.5761 0012003 292.9931  66.9953 13.51012360128308
QIANFAN-42              
1 62243U 24232G   26196.92423977  .00000070  00000+0  23616-4 0  9995
2 62243  89.0060  12.8714 0017345  99.5346 260.7808 14.24620975132008
QIANFAN-43              
1 62244U 24232H   26196.91160802  .00000027  00000+0  22771-4 0  9993
2 62244  89.0076  19.6514 0013627 298.6336  61.3444 13.51011731 96912
QIANFAN-44              
1 62245U 24232J   26196.89920976  .00000023  00000+0  16898-4 0  9996
2 62245  89.0075  19.4598 0011790 295.7493  64.2441 13.51013608128384
QIANFAN-45              
1 62246U 24232K   26196.94045053  .00000032  00000+0  31026-4 0  9997
2 62246  89.0078  19.6099 0012449 295.0837  64.9021 13.51011042128317
QIANFAN-46              
1 62247U 24232L   26196.96510427  .00000001  00000+0 -17262-4 0  9995
2 62247  89.0074  19.6676 0012597 301.2909  58.7008 13.51011658128273
QIANFAN-47              
1 62248U 24232M   26196.89517193  .00000016  00000+0  65293-5 0  9998
2 62248  89.0070  19.5989 0012997 300.3571  59.6294 13.51011168128290
QIANFAN-48              
1 62249U 24232N   26196.93205285  .00000026  00000+0  21370-4 0  9998
2 62249  89.0074  19.6054 0015307 302.5897  57.3776 13.51015809128300
