{"fetched_at":"2026-07-16T06:42:36.857Z","source":"https://celestrak.org/NORAD/elements/gp.php?GROUP=qianfan&FORMAT=JSON","constellation":"qianfan","records":[{"OBJECT_NAME":"QIANFAN-33","OBJECT_ID":"2024-185Q","EPOCH":"2026-07-15T21:51:04.010976","CLASSIFICATION_TYPE":"U","MEAN_MOTION":13.96719877,"ECCENTRICITY":0.00085881,"INCLINATION":88.9793,"RA_OF_ASC_NODE":54.8206,"ARG_OF_PERICENTER":29.2091,"MEAN_ANOMALY":330.9565,"EPHEMERIS_TYPE":0,"NORAD_CAT_ID":61566,"ELEMENT_SET_NO":999,"REV_AT_EPOCH":9919,"BSTAR":0.00011218047,"MEAN_MOTION_DOT":0.00000169,"MEAN_MOTION_DDOT":0},{"OBJECT_NAME":"QIANFAN-34","OBJECT_ID":"2024-185R","EPOCH":"2026-07-15T22:05:08.831904","CLASSIFICATION_TYPE":"U","MEAN_MOTION":14.02483907,"ECCENTRICITY":0.00067042,"INCLINATION":88.9771,"RA_OF_ASC_NODE":54.0984,"ARG_OF_PERICENTER":28.7047,"MEAN_ANOMALY":331.4501,"EPHEMERIS_TYPE":0,"NORAD_CAT_ID":61567,"ELEMENT_SET_NO":999,"REV_AT_EPOCH":9951,"BSTAR":0.000044710597,"MEAN_MOTION_DOT":8.3e-7,"MEAN_MOTION_DDOT":0},{"OBJECT_NAME":"QIANFAN-35","OBJECT_ID":"2024-185S","EPOCH":"2026-07-15T20:50:11.708448","CLASSIFICATION_TYPE":"U","MEAN_MOTION":14.28298308,"ECCENTRICITY":0.00044949,"INCLINATION":88.9798,"RA_OF_ASC_NODE":51.6304,"ARG_OF_PERICENTER":315.6194,"MEAN_ANOMALY":44.464,"EPHEMERIS_TYPE":0,"NORAD_CAT_ID":61568,"ELEMENT_SET_NO":999,"REV_AT_EPOCH":10088,"BSTAR":0.000126681,"MEAN_MOTION_DOT":0.00000331,"MEAN_MOTION_DDOT":0},{"OBJECT_NAME":"QIANFAN-36","OBJECT_ID":"2024-185T","EPOCH":"2026-07-15T21:37:50.794176","CLASSIFICATION_TYPE":"U","MEAN_MOTION":13.55640336,"ECCENTRICITY":0.00076584,"INCLINATION":88.9771,"RA_OF_ASC_NODE":58.625,"ARG_OF_PERICENTER":125.5698,"MEAN_ANOMALY":234.617,"EPHEMERIS_TYPE":0,"NORAD_CAT_ID":61569,"ELEMENT_SET_NO":999,"REV_AT_EPOCH":9707,"BSTAR":0.00014086708,"MEAN_MOTION_DOT":0.0000011,"MEAN_MOTION_DDOT":0},{"OBJECT_NAME":"QIANFAN-37","OBJECT_ID":"2024-232B","EPOCH":"2026-07-15T22:10:33.963744","CLASSIFICATION_TYPE":"U","MEAN_MOTION":13.51011259,"ECCENTRICITY":0.00020158,"INCLINATION":89.0067,"RA_OF_ASC_NODE":19.6974,"ARG_OF_PERICENTER":108.0285,"MEAN_ANOMALY":252.1086,"EPHEMERIS_TYPE":0,"NORAD_CAT_ID":62238,"ELEMENT_SET_NO":999,"REV_AT_EPOCH":12822,"BSTAR":0.000013371156,"MEAN_MOTION_DOT":2.1e-7,"MEAN_MOTION_DDOT":0},{"OBJECT_NAME":"QIANFAN-38","OBJECT_ID":"2024-232C","EPOCH":"2026-07-15T22:46:07.837248","CLASSIFICATION_TYPE":"U","MEAN_MOTION":13.51007956,"ECCENTRICITY":0.00126555,"INCLINATION":89.0074,"RA_OF_ASC_NODE":19.6252,"ARG_OF_PERICENTER":297.2752,"MEAN_ANOMALY":62.711,"EPHEMERIS_TYPE":0,"NORAD_CAT_ID":62239,"ELEMENT_SET_NO":999,"REV_AT_EPOCH":12828,"BSTAR":0.000033739508,"MEAN_MOTION_DOT":3.4e-7,"MEAN_MOTION_DDOT":0},{"OBJECT_NAME":"QIANFAN-39","OBJECT_ID":"2024-232D","EPOCH":"2026-07-15T22:18:36.015264","CLASSIFICATION_TYPE":"U","MEAN_MOTION":14.25532447,"ECCENTRICITY":0.00185355,"INCLINATION":89.0062,"RA_OF_ASC_NODE":12.7917,"ARG_OF_PERICENTER":93.6163,"MEAN_ANOMALY":266.7151,"EPHEMERIS_TYPE":0,"NORAD_CAT_ID":62240,"ELEMENT_SET_NO":999,"REV_AT_EPOCH":13204,"BSTAR":0.000023998588,"MEAN_MOTION_DOT":7.2e-7,"MEAN_MOTION_DDOT":0},{"OBJECT_NAME":"QIANFAN-40","OBJECT_ID":"2024-232E","EPOCH":"2026-07-15T21:46:48.948672","CLASSIFICATION_TYPE":"U","MEAN_MOTION":13.51009404,"ECCENTRICITY":0.00118543,"INCLINATION":89.0101,"RA_OF_ASC_NODE":19.2739,"ARG_OF_PERICENTER":306.9758,"MEAN_ANOMALY":53.0307,"EPHEMERIS_TYPE":0,"NORAD_CAT_ID":62241,"ELEMENT_SET_NO":999,"REV_AT_EPOCH":12864,"BSTAR":0.000010668406,"MEAN_MOTION_DOT":1.9e-7,"MEAN_MOTION_DDOT":0},{"OBJECT_NAME":"QIANFAN-41","OBJECT_ID":"2024-232F","EPOCH":"2026-07-15T21:58:38.854272","CLASSIFICATION_TYPE":"U","MEAN_MOTION":13.5101236,"ECCENTRICITY":0.00120039,"INCLINATION":89.0072,"RA_OF_ASC_NODE":19.5761,"ARG_OF_PERICENTER":292.9931,"MEAN_ANOMALY":66.9953,"EPHEMERIS_TYPE":0,"NORAD_CAT_ID":62242,"ELEMENT_SET_NO":999,"REV_AT_EPOCH":12830,"BSTAR":0.000030742801,"MEAN_MOTION_DOT":3.2e-7,"MEAN_MOTION_DDOT":0},{"OBJECT_NAME":"QIANFAN-42","OBJECT_ID":"2024-232G","EPOCH":"2026-07-15T22:10:54.316128","CLASSIFICATION_TYPE":"U","MEAN_MOTION":14.24620975,"ECCENTRICITY":0.00173455,"INCLINATION":89.006,"RA_OF_ASC_NODE":12.8714,"ARG_OF_PERICENTER":99.5346,"MEAN_ANOMALY":260.7808,"EPHEMERIS_TYPE":0,"NORAD_CAT_ID":62243,"ELEMENT_SET_NO":999,"REV_AT_EPOCH":13200,"BSTAR":0.000023616242,"MEAN_MOTION_DOT":7e-7,"MEAN_MOTION_DDOT":0},{"OBJECT_NAME":"QIANFAN-43","OBJECT_ID":"2024-232H","EPOCH":"2026-07-15T21:52:42.932928","CLASSIFICATION_TYPE":"U","MEAN_MOTION":13.51011731,"ECCENTRICITY":0.00136272,"INCLINATION":89.0076,"RA_OF_ASC_NODE":19.6514,"ARG_OF_PERICENTER":298.6336,"MEAN_ANOMALY":61.3444,"EPHEMERIS_TYPE":0,"NORAD_CAT_ID":62244,"ELEMENT_SET_NO":999,"REV_AT_EPOCH":9691,"BSTAR":0.000022770812,"MEAN_MOTION_DOT":2.7e-7,"MEAN_MOTION_DDOT":0},{"OBJECT_NAME":"QIANFAN-44","OBJECT_ID":"2024-232J","EPOCH":"2026-07-15T21:34:51.723264","CLASSIFICATION_TYPE":"U","MEAN_MOTION":13.51013608,"ECCENTRICITY":0.00117901,"INCLINATION":89.0075,"RA_OF_ASC_NODE":19.4598,"ARG_OF_PERICENTER":295.7493,"MEAN_ANOMALY":64.2441,"EPHEMERIS_TYPE":0,"NORAD_CAT_ID":62245,"ELEMENT_SET_NO":999,"REV_AT_EPOCH":12838,"BSTAR":0.000016897859,"MEAN_MOTION_DOT":2.3e-7,"MEAN_MOTION_DDOT":0},{"OBJECT_NAME":"QIANFAN-45","OBJECT_ID":"2024-232K","EPOCH":"2026-07-15T22:34:14.925792","CLASSIFICATION_TYPE":"U","MEAN_MOTION":13.51011042,"ECCENTRICITY":0.00124494,"INCLINATION":89.0078,"RA_OF_ASC_NODE":19.6099,"ARG_OF_PERICENTER":295.0837,"MEAN_ANOMALY":64.9021,"EPHEMERIS_TYPE":0,"NORAD_CAT_ID":62246,"ELEMENT_SET_NO":999,"REV_AT_EPOCH":12831,"BSTAR":0.000031025947,"MEAN_MOTION_DOT":3.2e-7,"MEAN_MOTION_DDOT":0},{"OBJECT_NAME":"QIANFAN-46","OBJECT_ID":"2024-232L","EPOCH":"2026-07-15T23:09:45.008928","CLASSIFICATION_TYPE":"U","MEAN_MOTION":13.51011658,"ECCENTRICITY":0.00125971,"INCLINATION":89.0074,"RA_OF_ASC_NODE":19.6676,"ARG_OF_PERICENTER":301.2909,"MEAN_ANOMALY":58.7008,"EPHEMERIS_TYPE":0,"NORAD_CAT_ID":62247,"ELEMENT_SET_NO":999,"REV_AT_EPOCH":12827,"BSTAR":-0.000017262051,"MEAN_MOTION_DOT":1e-8,"MEAN_MOTION_DDOT":0},{"OBJECT_NAME":"QIANFAN-47","OBJECT_ID":"2024-232M","EPOCH":"2026-07-15T21:29:02.854752","CLASSIFICATION_TYPE":"U","MEAN_MOTION":13.51011168,"ECCENTRICITY":0.00129973,"INCLINATION":89.007,"RA_OF_ASC_NODE":19.5989,"ARG_OF_PERICENTER":300.3571,"MEAN_ANOMALY":59.6294,"EPHEMERIS_TYPE":0,"NORAD_CAT_ID":62248,"ELEMENT_SET_NO":999,"REV_AT_EPOCH":12829,"BSTAR":0.000006529336,"MEAN_MOTION_DOT":1.6e-7,"MEAN_MOTION_DDOT":0},{"OBJECT_NAME":"QIANFAN-48","OBJECT_ID":"2024-232N","EPOCH":"2026-07-15T22:22:09.366240","CLASSIFICATION_TYPE":"U","MEAN_MOTION":13.51015809,"ECCENTRICITY":0.00153076,"INCLINATION":89.0074,"RA_OF_ASC_NODE":19.6054,"ARG_OF_PERICENTER":302.5897,"MEAN_ANOMALY":57.3776,"EPHEMERIS_TYPE":0,"NORAD_CAT_ID":62249,"ELEMENT_SET_NO":999,"REV_AT_EPOCH":12830,"BSTAR":0.000021369749,"MEAN_MOTION_DOT":2.6e-7,"MEAN_MOTION_DDOT":0}]}
